start=new Date('2022-07-26T00:00:00.000Z').valueOf();
sats=[{"ARG_OF_PERICENTER":"52.7771","OBJECT_NAME":"STARLINK-3229","TIME_SYSTEM":"UTC","TLE_LINE1":"1 49751U 21115AD  22206.76888475 -.00000329  00000-0 -25566-5 0  9996","MEAN_MOTION_DDOT":"0.0000000000000","DECAY_DATE":null,"EPHEMERIS_TYPE":"0","SEMIMAJOR_AXIS":"6917.882","FILE":"3521711","ELEMENT_SET_NO":"999","APOAPSIS":"540.913","CLASSIFICATION_TYPE":"U","MEAN_ELEMENT_THEORY":"SGP4","RA_OF_ASC_NODE":"327.9511","MEAN_MOTION_DOT":"-0.00000329","OBJECT_TYPE":"PAYLOAD","TLE_LINE2":"2 49751  53.2177 327.9511 0001685  52.7771 307.3375 15.08839311 35825","MEAN_ANOMALY":"307.3375","LAUNCH_DATE":"2021-12-02","CENTER_NAME":"EARTH","BSTAR":"-0.00000255660000","SITE":"AFETR","COUNTRY_CODE":"US","PERIOD":"95.438","GP_ID":"208863954","EPOCH":"2022-07-25T18:27:11.642400","MEAN_MOTION":"15.08839311","REV_AT_EPOCH":"3582","OBJECT_ID":"2021-115AD","PERIAPSIS":"538.582","INCLINATION":"53.2177","REF_FRAME":"TEME","NORAD_CAT_ID":"49751","ECCENTRICITY":"0.00016850","RCS_SIZE":"LARGE"},{"GP_ID":"208864704","OBJECT_ID":"2021-115AE","REV_AT_EPOCH":"3596","MEAN_MOTION":"15.08830825","EPOCH":"2022-07-25T19:05:37.878720","PERIAPSIS":"538.707","INCLINATION":"53.2169","RCS_SIZE":"LARGE","ECCENTRICITY":"0.00015410","NORAD_CAT_ID":"49752","REF_FRAME":"TEME","CENTER_NAME":"EARTH","LAUNCH_DATE":"2021-12-02","BSTAR":"0.00010977000000","SITE":"AFETR","COUNTRY_CODE":"US","PERIOD":"95.438","EPHEMERIS_TYPE":"0","SEMIMAJOR_AXIS":"6917.908","DECAY_DATE":null,"APOAPSIS":"540.839","ELEMENT_SET_NO":"999","CLASSIFICATION_TYPE":"U","FILE":"3521711","TLE_LINE2":"2 49752  53.2169 317.8393 0001541  50.4772 309.6356 15.08830825 35960","OBJECT_TYPE":"PAYLOAD","MEAN_MOTION_DOT":"0.00001459","RA_OF_ASC_NODE":"317.8393","MEAN_ELEMENT_THEORY":"SGP4","MEAN_ANOMALY":"309.6356","TIME_SYSTEM":"UTC","OBJECT_NAME":"STARLINK-3209","ARG_OF_PERICENTER":"50.4772","TLE_LINE1":"1 49752U 21115AE  22206.79557730  .00001459  00000-0  10977-3 0  9998","MEAN_MOTION_DDOT":"0.0000000000000"},{"TLE_LINE1":"1 49753U 21115AF  22206.77626116 -.00000799  00000-0 -32137-4 0  9993","ARG_OF_PERICENTER":"52.3414","OBJECT_NAME":"STARLINK-3200","TIME_SYSTEM":"UTC","MEAN_MOTION_DDOT":"0.0000000000000","FILE":"3521711","APOAPSIS":"541.012","CLASSIFICATION_TYPE":"U","ELEMENT_SET_NO":"999","DECAY_DATE":null,"EPHEMERIS_TYPE":"0","SEMIMAJOR_AXIS":"6917.916","MEAN_ANOMALY":"307.7739","MEAN_ELEMENT_THEORY":"SGP4","RA_OF_ASC_NODE":"327.9249","MEAN_MOTION_DOT":"-0.00000799","TLE_LINE2":"2 49753  53.2184 327.9249 0001779  52.3414 307.7739 15.08828242 35826","OBJECT_TYPE":"PAYLOAD","BSTAR":"-0.00003213700000","SITE":"AFETR","LAUNCH_DATE":"2021-12-02","CENTER_NAME":"EARTH","PERIOD":"95.438","COUNTRY_CODE":"US","EPOCH":"2022-07-25T18:37:48.964224","MEAN_MOTION":"15.08828242","REV_AT_EPOCH":"3582","OBJECT_ID":"2021-115AF","GP_ID":"208863452","REF_FRAME":"TEME","NORAD_CAT_ID":"49753","ECCENTRICITY":"0.00017790","RCS_SIZE":"LARGE","PERIAPSIS":"538.551","INCLINATION":"53.2184"},{"TIME_SYSTEM":"UTC","ARG_OF_PERICENTER":"134.8900","OBJECT_NAME":"STARLINK-3193","TLE_LINE1":"1 49754U 21115AG  22206.72294620 -.00001865  00000-0 -98940-4 0  9999","MEAN_MOTION_DDOT":"0.0000000000000","SEMIMAJOR_AXIS":"6917.906","EPHEMERIS_TYPE":"0","DECAY_DATE":null,"ELEMENT_SET_NO":"999","APOAPSIS":"544.048","CLASSIFICATION_TYPE":"U","FILE":"3521711","OBJECT_TYPE":"PAYLOAD","TLE_LINE2":"2 49754  53.2190 318.1486 0006183 134.8900 225.2595 15.08831724 35956","MEAN_MOTION_DOT":"-0.00001865","RA_OF_ASC_NODE":"318.1486","MEAN_ELEMENT_THEORY":"SGP4","MEAN_ANOMALY":"225.2595","CENTER_NAME":"EARTH","LAUNCH_DATE":"2021-12-02","SITE":"AFETR","BSTAR":"-0.00009894000000","COUNTRY_CODE":"US","PERIOD":"95.438","GP_ID":"208863702","OBJECT_ID":"2021-115AG","MEAN_MOTION":"15.08831724","REV_AT_EPOCH":"3595","EPOCH":"2022-07-25T17:21:02.551680","INCLINATION":"53.2190","PERIAPSIS":"535.493","ECCENTRICITY":"0.00061830","RCS_SIZE":"LARGE","NORAD_CAT_ID":"49754","REF_FRAME":"TEME"},{"MEAN_MOTION_DDOT":"0.0000000000000","TLE_LINE1":"1 49755U 21115AH  22206.65113168 -.00000002  00000-0  17961-4 0  9994","TIME_SYSTEM":"UTC","ARG_OF_PERICENTER":"91.1919","OBJECT_NAME":"STARLINK-3210","MEAN_ANOMALY":"268.9205","TLE_LINE2":"2 49755  53.2199 328.4755 0001147  91.1919 268.9205 15.08830712 35801","OBJECT_TYPE":"PAYLOAD","MEAN_MOTION_DOT":"-0.00000002","MEAN_ELEMENT_THEORY":"SGP4","RA_OF_ASC_NODE":"328.4755","APOAPSIS":"540.567","ELEMENT_SET_NO":"999","CLASSIFICATION_TYPE":"U","FILE":"3521711","EPHEMERIS_TYPE":"0","SEMIMAJOR_AXIS":"6917.909","DECAY_DATE":null,"PERIOD":"95.438","COUNTRY_CODE":"US","SITE":"AFETR","BSTAR":"0.00001796100000","CENTER_NAME":"EARTH","LAUNCH_DATE":"2021-12-02","RCS_SIZE":"LARGE","ECCENTRICITY":"0.00011470","NORAD_CAT_ID":"49755","REF_FRAME":"TEME","INCLINATION":"53.2199","PERIAPSIS":"538.980","OBJECT_ID":"2021-115AH","REV_AT_EPOCH":"3580","MEAN_MOTION":"15.08830712","EPOCH":"2022-07-25T15:37:37.777152","GP_ID":"208864454"},{"SITE":"AFETR","BSTAR":"-0.00000494160000","LAUNCH_DATE":"2021-12-02","CENTER_NAME":"EARTH","PERIOD":"95.438","COUNTRY_CODE":"US","EPOCH":"2022-07-25T17:46:08.717952","OBJECT_ID":"2021-115AJ","MEAN_MOTION":"15.08828550","REV_AT_EPOCH":"3595","GP_ID":"208864205","NORAD_CAT_ID":"49756","REF_FRAME":"TEME","ECCENTRICITY":"0.00013670","RCS_SIZE":"LARGE","INCLINATION":"53.2175","PERIAPSIS":"538.835","TLE_LINE1":"1 49756U 21115AJ  22206.74037868 -.00000367  00000-0 -49416-5 0  9993","OBJECT_NAME":"STARLINK-3207","ARG_OF_PERICENTER":"68.7209","TIME_SYSTEM":"UTC","MEAN_MOTION_DDOT":"0.0000000000000","FILE":"3521711","ELEMENT_SET_NO":"999","APOAPSIS":"540.726","CLASSIFICATION_TYPE":"U","EPHEMERIS_TYPE":"0","SEMIMAJOR_AXIS":"6917.915","DECAY_DATE":null,"MEAN_ANOMALY":"291.3929","MEAN_MOTION_DOT":"-0.00000367","MEAN_ELEMENT_THEORY":"SGP4","RA_OF_ASC_NODE":"318.0743","TLE_LINE2":"2 49756  53.2175 318.0743 0001367  68.7209 291.3929 15.08828550 35950","OBJECT_TYPE":"PAYLOAD"},{"BSTAR":"0.00002114000000","SITE":"AFETR","CENTER_NAME":"EARTH","LAUNCH_DATE":"2021-12-02","PERIOD":"95.438","COUNTRY_CODE":"US","MEAN_MOTION":"15.08837272","REV_AT_EPOCH":"3595","OBJECT_ID":"2021-115AK","EPOCH":"2022-07-25T17:35:32.570304","GP_ID":"208862953","RCS_SIZE":"LARGE","ECCENTRICITY":"0.00018080","REF_FRAME":"TEME","NORAD_CAT_ID":"49757","PERIAPSIS":"538.503","INCLINATION":"53.2168","TLE_LINE1":"1 49757U 21115AK  22206.73301586  .00000048  00000-0  21140-4 0  9991","TIME_SYSTEM":"UTC","ARG_OF_PERICENTER":"50.5760","OBJECT_NAME":"STARLINK-3197","MEAN_MOTION_DDOT":"0.0000000000000","APOAPSIS":"541.004","ELEMENT_SET_NO":"999","CLASSIFICATION_TYPE":"U","FILE":"3521711","DECAY_DATE":null,"SEMIMAJOR_AXIS":"6917.889","EPHEMERIS_TYPE":"0","MEAN_ANOMALY":"309.5392","OBJECT_TYPE":"PAYLOAD","TLE_LINE2":"2 49757  53.2168 318.1098 0001808  50.5760 309.5392 15.08837272 35955","MEAN_ELEMENT_THEORY":"SGP4","RA_OF_ASC_NODE":"318.1098","MEAN_MOTION_DOT":"0.00000048"},{"TIME_SYSTEM":"UTC","ARG_OF_PERICENTER":"50.2199","OBJECT_NAME":"STARLINK-3194","TLE_LINE1":"1 49758U 21115AL  22206.68150347 -.00000498  00000-0 -13205-4 0  9997","MEAN_MOTION_DDOT":"0.0000000000000","DECAY_DATE":null,"SEMIMAJOR_AXIS":"6917.920","EPHEMERIS_TYPE":"0","APOAPSIS":"540.875","ELEMENT_SET_NO":"999","CLASSIFICATION_TYPE":"U","FILE":"3521711","TLE_LINE2":"2 49758  53.2183 318.3429 0001575  50.2199 309.8931 15.08826964 35944","OBJECT_TYPE":"PAYLOAD","RA_OF_ASC_NODE":"318.3429","MEAN_ELEMENT_THEORY":"SGP4","MEAN_MOTION_DOT":"-0.00000498","MEAN_ANOMALY":"309.8931","CENTER_NAME":"EARTH","LAUNCH_DATE":"2021-12-02","BSTAR":"-0.00001320500000","SITE":"AFETR","COUNTRY_CODE":"US","PERIOD":"95.438","GP_ID":"208863203","MEAN_MOTION":"15.08826964","REV_AT_EPOCH":"3594","OBJECT_ID":"2021-115AL","EPOCH":"2022-07-25T16:21:21.899808","INCLINATION":"53.2183","PERIAPSIS":"538.696","ECCENTRICITY":"0.00015750","RCS_SIZE":"LARGE","REF_FRAME":"TEME","NORAD_CAT_ID":"49758"},{"MEAN_MOTION_DOT":"-0.00000017","MEAN_ELEMENT_THEORY":"SGP4","RA_OF_ASC_NODE":"318.1004","OBJECT_TYPE":"PAYLOAD","TLE_LINE2":"2 49759  53.2185 318.1004 0001690  46.6867 313.4265 15.08831340 35959","MEAN_ANOMALY":"313.4265","SEMIMAJOR_AXIS":"6917.907","EPHEMERIS_TYPE":"0","DECAY_DATE":null,"FILE":"3521711","APOAPSIS":"540.941","ELEMENT_SET_NO":"999","CLASSIFICATION_TYPE":"U","MEAN_MOTION_DDOT":"0.0000000000000","ARG_OF_PERICENTER":"46.6867","OBJECT_NAME":"STARLINK-3204","TIME_SYSTEM":"UTC","TLE_LINE1":"1 49759U 21115AM  22206.73669443 -.00000017  00000-0  17006-4 0  9995","PERIAPSIS":"538.603","INCLINATION":"53.2185","NORAD_CAT_ID":"49759","REF_FRAME":"TEME","ECCENTRICITY":"0.00016900","RCS_SIZE":"LARGE","GP_ID":"208863955","EPOCH":"2022-07-25T17:40:50.398752","OBJECT_ID":"2021-115AM","MEAN_MOTION":"15.08831340","REV_AT_EPOCH":"3595","COUNTRY_CODE":"US","PERIOD":"95.438","LAUNCH_DATE":"2021-12-02","CENTER_NAME":"EARTH","BSTAR":"0.00001700600000","SITE":"AFETR"},{"MEAN_MOTION_DDOT":"0.0000000000000","ARG_OF_PERICENTER":"51.1045","OBJECT_NAME":"STARLINK-3199","TIME_SYSTEM":"UTC","TLE_LINE1":"1 49760U 21115AN  22206.75510969 -.00000930  00000-0 -40343-4 0  9992","RA_OF_ASC_NODE":"318.0093","MEAN_ELEMENT_THEORY":"SGP4","MEAN_MOTION_DOT":"-0.00000930","TLE_LINE2":"2 49760  53.2198 318.0093 0001739  51.1045 309.0102 15.08824589 35964","OBJECT_TYPE":"PAYLOAD","MEAN_ANOMALY":"309.0102","DECAY_DATE":null,"EPHEMERIS_TYPE":"0","SEMIMAJOR_AXIS":"6917.927","FILE":"3521711","APOAPSIS":"540.996","ELEMENT_SET_NO":"999","CLASSIFICATION_TYPE":"U","COUNTRY_CODE":"US","PERIOD":"95.439","LAUNCH_DATE":"2021-12-02","CENTER_NAME":"EARTH","BSTAR":"-0.00004034300000","SITE":"AFETR","PERIAPSIS":"538.589","INCLINATION":"53.2198","REF_FRAME":"TEME","NORAD_CAT_ID":"49760","ECCENTRICITY":"0.00017390","RCS_SIZE":"LARGE","GP_ID":"208864705","EPOCH":"2022-07-25T18:07:21.477216","REV_AT_EPOCH":"3596","MEAN_MOTION":"15.08824589","OBJECT_ID":"2021-115AN"}];
